[{"OBJECT_NAME":"STARLINK-4795","OBJECT_ID":"2022-114AQ","EPOCH":"2026-03-09T21:46:42.885984","MEAN_MOTION":15.08834203,"ECCENTRICITY":0.00010775,"INCLINATION":53.2162,"RA_OF_ASC_NODE":283.2258,"ARG_OF_PERICENTER":80.8504,"MEAN_ANOMALY":279.261,"EPHEMERIS_TYPE":0,"CLASSIFICATION_TYPE":"U","NORAD_CAT_ID":53856,"ELEMENT_SET_NO":999,"REV_AT_EPOCH":19314,"BSTAR":0.00034166264,"MEAN_MOTION_DOT":5.153e-5,"MEAN_MOTION_DDOT":0},{"OBJECT_NAME":"COSMOS 2251 DEB","OBJECT_ID":"1993-036KP","EPOCH":"2026-03-09T11:34:45.143616","MEAN_MOTION":14.98033379,"ECCENTRICITY":0.0061647,"INCLINATION":73.9497,"RA_OF_ASC_NODE":73.2248,"ARG_OF_PERICENTER":244.1722,"MEAN_ANOMALY":240.8942,"EPHEMERIS_TYPE":0,"CLASSIFICATION_TYPE":"U","NORAD_CAT_ID":34118,"ELEMENT_SET_NO":999,"REV_AT_EPOCH":90473,"BSTAR":0.001884933,"MEAN_MOTION_DOT":0.00023205,"MEAN_MOTION_DDOT":0}]
